COSMOS 2419 (714)       
1 28915U 05050A   16168.25296103 -.00000056  00000-0  00000+0 0  9996
2 28915  65.3217  78.1955 0017045 351.1347 150.0370  2.13110661 81531
COSMOS 2425 (716)       
1 29670U 06062A   16168.17028514 -.00000053  00000-0  10000-3 0  9991
2 29670  65.6342 317.1885 0020828 350.9574 144.4643  2.13104889 73730
COSMOS 2426 (717)       
1 29671U 06062B   16167.66466226 -.00000052  00000-0  10000-3 0  9990
2 29671  65.6516 317.2871 0017787 158.5800 169.8653  2.13102896 73721
COSMOS 2424 (715)       
1 29672U 06062C   16167.44598420 -.00000052  00000-0  10000-3 0  9999
2 29672  65.6366 317.2231 0017260 157.6833 179.3086  2.13102226 73719
COSMOS 2433 (720)       
1 32275U 07052A   16167.62925758 -.00000059  00000-0  10000-3 0  9997
2 32275  65.3369  77.9872 0003222 293.3646 339.0241  2.13104744 67231
COSMOS 2432 (719)       
1 32276U 07052B   16167.56138725 -.00000060  00000-0  10000-3 0  9993
2 32276  65.3489  78.0555 0013284 338.3264 195.8106  2.13104235 67233
COSMOS 2434 (721)       
1 32393U 07065A   16168.12407454 -.00000054  00000-0  00000+0 0  9996
2 32393  65.2530 316.5131 0005931 105.1882  78.8384  2.13102800 65956
COSMOS 2436 (723)       
1 32395U 07065C   16168.27360412 -.00000054  00000-0  10000-3 0  9991
2 32395  65.2655 316.5506 0016745   0.7993  29.9603  2.13102851 65890
COSMOS 2443 (725)       
1 33379U 08046B   16167.52741911 -.00000060  00000-0  10000-3 0  9995
2 33379  65.2658  77.4075 0016173 186.7582 272.6187  2.13101356 60106
COSMOS 2456 (730)       
1 36111U 09070A   16168.23766822  .00000098  00000-0  00000+0 0  9992
2 36111  64.1818 196.0977 0006098 297.5913 143.1221  2.13102883 50625
COSMOS 2457 (733)       
1 36112U 09070B   16168.37138101  .00000099  00000-0  00000+0 0  9992
2 36112  64.1641 196.0202 0006778 186.6876 126.8616  2.13101537 50623
COSMOS 2458 (734)       
1 36113U 09070C   16168.23777825  .00000098  00000-0  10000-3 0  9994
2 36113  64.1695 196.0300 0002304 294.6407 323.9494  2.13102045 50622
COSMOS 2459 (731)       
1 36400U 10007A   16168.30970131 -.00000057  00000-0  10000-3 0  9994
2 36400  65.2450  77.1154 0029783 352.7891 306.9758  2.13102363 48973
COSMOS 2461 (735)       
1 36401U 10007B   16168.44317359 -.00000056  00000-0  10000-3 0  9996
2 36401  65.2381  77.0925 0006690  57.1643 255.5600  2.13102437 48972
COSMOS 2460 (732)       
1 36402U 10007C   16168.37266451 -.00000056  00000-0  10000-3 0  9995
2 36402  65.2282  77.0718 0001685 350.4844 310.0206  2.13101896 48971
COSMOS 2465 (737)       
1 37138U 10041B   16167.02070280 -.00000053  00000-0  00000-0 0  9997
2 37138  64.8531 316.7239 0035490 167.7066 294.6857  2.13093880 45022
COSMOS 2464 (736)       
1 37139U 10041C   16168.07079439 -.00000055  00000-0  00000+0 0  9990
2 37139  64.8589 316.6846 0022948  17.3467 353.5009  2.13102594 45058
COSMOS 2471 (701K)      
1 37372U 11009A   16168.17198616 -.00000058  00000-0  00000+0 0  9997
2 37372  65.2258  77.0277 0007433 243.2298  35.9114  2.13102757 41241
COSMOS 2474 (742)       
1 37829U 11055A   16167.46614308  .00000093  00000-0  00000+0 0  9995
2 37829  64.5061 196.5360 0010346 253.6760 176.5747  2.13101937 36605
COSMOS 2476 (744)       
1 37867U 11064A   16168.40451564  .00000099  00000-0  00000+0 0  9991
2 37867  64.4856 196.5853 0019264 248.2391 227.7367  2.13102018 35970
COSMOS 2477 (745)       
1 37868U 11064B   16168.45895731  .00000099  00000-0  00000+0 0  9995
2 37868  64.4949 196.6239 0017303 249.6877  87.3566  2.13101872 35922
COSMOS 2475 (743)       
1 37869U 11064C   16168.18116193  .00000098  00000-0  00000+0 0  9993
2 37869  64.5017 196.6212 0022607 273.9212 166.1290  2.13102000 35932
COSMOS 2485 (747)       
1 39155U 13019A   16167.30014350  .00000091  00000-0  00000+0 0  9993
2 39155  64.6554 196.5725 0019641 243.5079 150.3581  2.13101988 24429
COSMOS 2492 (754)       
1 39620U 14012A   16168.39661677 -.00000056  00000-0  10000-3 0  9991
2 39620  65.1179  77.0590 0016794 334.2752 213.9938  2.13103478 17396
COSMOS 2500 (755)       
1 40001U 14032A   16167.52726865 -.00000061  00000-0  00000+0 0  9994
2 40001  65.0571  77.1133 0004929 218.0274 247.0536  2.13103008 15596
COSMOS 2501 (702K)      
1 40315U 14075A   16167.60508337 -.00000054  00000-0  00000+0 0  9992
2 40315  64.6250 318.1573 0016432 231.6212  94.3721  2.13101562 11996
COSMOS 2514 (751)       
1 41330U 16008A   16168.20613267 -.00000058  00000-0  00000+0 0  9998
2 41330  64.8580  77.3260 0008151 223.7954 221.1196  2.13103564  2779
COSMOS 2516 (753)       
1 41554U 16032A   16167.76302377  .00000000  00000-0  10000-3 0  9991
2 41554  64.8050 317.8268 0009991 217.7043 142.2244  2.13101022   361
